{"type": "FeatureCollection", "features": [ {"type": "Feature", "properties": {"norad_id": 37404, "name": "FENGYUN 1C DEB", "group": "fengyun-1c-debris", "lat": 74.46923534352507, "lon": -166.26501036920857, "alt_km": 775.9190228257348, "timestamp": "2025-12-04T07:39:36.423146+00:00", "meta": {"OBJECT_NAME": "FENGYUN 1C DEB", "OBJECT_ID": "1999-025EFW", "EPOCH": "2025-12-03T11:46:07.339008", "MEAN_MOTION": 14.31589733, "ECCENTRICITY": 0.00440614, "INCLINATION": 98.4524, "RA_OF_ASC_NODE": 340.5795, "ARG_OF_PERICENTER": 189.623, "MEAN_ANOMALY": 324.9221, "EPHEMERIS_TYPE": 0, "CLASSIFICATION_TYPE": "U", "NORAD_CAT_ID": 37404, "ELEMENT_SET_NO": 999, "REV_AT_EPOCH": 82608, "BSTAR": 0.00096855201, "MEAN_MOTION_DOT": 2.564e-05, "MEAN_MOTION_DDOT": 0}, "tle": {"line1": "1 37404U 99025EFW 25337.49036272  .00002564  00000+0  96855-3 0  9998", "line2": "2 37404  98.4524 340.5795 0044061 189.6230 324.9221 14.31589733826080"}}, "geometry": {"type": "Point", "coordinates": [-166.26501036920857, 74.46923534352507]}}, {"type": "Feature", "properties": {"norad_id": 37406, "name": "FENGYUN 1C DEB", "group": "fengyun-1c-debris", "lat": 48.02197822369237, "lon": 40.542905881040824, "alt_km": 976.7643208759628, "timestamp": "2025-12-04T07:39:36.423155+00:00", "meta": {"OBJECT_NAME": "FENGYUN 1C DEB", "OBJECT_ID": "1999-025EFY", "EPOCH": "2025-11-30T09:51:26.349696", "MEAN_MOTION": 14.04210326, "ECCENTRICITY": 0.01505151, "INCLINATION": 98.4431, "RA_OF_ASC_NODE": 207.4058, "ARG_OF_PERICENTER": 301.4586, "MEAN_ANOMALY": 243.4646, "EPHEMERIS_TYPE": 0, "CLASSIFICATION_TYPE": "U", "NORAD_CAT_ID": 37406, "ELEMENT_SET_NO": 999, "REV_AT_EPOCH": 63059, "BSTAR": 0.0013349952, "MEAN_MOTION_DOT": 2.303e-05, "MEAN_MOTION_DDOT": 0}, "tle": {"line1": "1 37406U 99025EFY 25334.41072164  .00002303  00000+0  13350-2 0  9998", "line2": "2 37406  98.4431 207.4058 0150515 301.4586 243.4646 14.04210326630596"}}, "geometry": {"type": "Point", "coordinates": [40.542905881040824, 48.02197822369237]}}, {"type": "Feature", "properties": {"norad_id": 37415, "name": "FENGYUN 1C DEB", "group": "fengyun-1c-debris", "lat": -80.73474046885445, "lon": -168.86619226427985, "alt_km": 974.1166285872196, "timestamp": "2025-12-04T07:39:36.423164+00:00", "meta": {"OBJECT_NAME": "FENGYUN 1C DEB", "OBJECT_ID": "1999-025EGH", "EPOCH": "2025-12-02T01:04:00.466176", "MEAN_MOTION": 13.52075679, "ECCENTRICITY": 0.02848718, "INCLINATION": 98.9818, "RA_OF_ASC_NODE": 84.8777, "ARG_OF_PERICENTER": 209.5506, "MEAN_ANOMALY": 148.9269, "EPHEMERIS_TYPE": 0, "CLASSIFICATION_TYPE": "U", "NORAD_CAT_ID": 37415, "ELEMENT_SET_NO": 999, "REV_AT_EPOCH": 62177, "BSTAR": 0.00059758334, "MEAN_MOTION_DOT": 4.68e-06, "MEAN_MOTION_DDOT": 0}, "tle": {"line1": "1 37415U 99025EGH 25336.04444984  .00000468  00000+0  59758-3 0  9995", "line2": "2 37415  98.9818  84.8777 0284871 209.5506 148.9269 13.52075679621770"}}, "geometry": {"type": "Point", "coordinates": [-168.86619226427985, -80.73474046885445]}}, {"type": "Feature", "properties": {"norad_id": 37417, "name": "FENGYUN 1C DEB", "group": "fengyun-1c-debris", "lat": 7.8859372023970575, "lon": 152.56429142914513, "alt_km": 891.9181951908131, "timestamp": "2025-12-04T07:39:36.423173+00:00", "meta": {"OBJECT_NAME": "FENGYUN 1C DEB", "OBJECT_ID": "1999-025EGK", "EPOCH": "2025-11-30T05:34:53.450976", "MEAN_MOTION": 14.07367073, "ECCENTRICITY": 0.00783952, "INCLINATION": 98.7959, "RA_OF_ASC_NODE": 327.3578, "ARG_OF_PERICENTER": 296.2961, "MEAN_ANOMALY": 63.017, "EPHEMERIS_TYPE": 0, "CLASSIFICATION_TYPE": "U", "NORAD_CAT_ID": 37417, "ELEMENT_SET_NO": 999, "REV_AT_EPOCH": 68174, "BSTAR": 0.00031485528, "MEAN_MOTION_DOT": 5e-06, "MEAN_MOTION_DDOT": 0}, "tle": {"line1": "1 37417U 99025EGK 25334.23256309  .00000500  00000+0  31486-3 0  9993", "line2": "2 37417  98.7959 327.3578 0078395 296.2961  63.0170 14.07367073681744"}}, "geometry": {"type": "Point", "coordinates": [152.56429142914513, 7.8859372023970575]}}, {"type": "Feature", "properties": {"norad_id": 37418, "name": "FENGYUN 1C DEB", "group": "fengyun-1c-debris", "lat": -64.65738420716906, "lon": -108.0456830417506, "alt_km": 1027.7936278859088, "timestamp": "2025-12-04T07:39:36.423182+00:00", "meta": {"OBJECT_NAME": "FENGYUN 1C DEB", "OBJECT_ID": "1999-025EGL", "EPOCH": "2025-12-02T23:48:59.069376", "MEAN_MOTION": 11.95097959, "ECCENTRICITY": 0.10777563, "INCLINATION": 98.6134, "RA_OF_ASC_NODE": 232.4073, "ARG_OF_PERICENTER": 339.0553, "MEAN_ANOMALY": 16.9351, "EPHEMERIS_TYPE": 0, "CLASSIFICATION_TYPE": "U", "NORAD_CAT_ID": 37418, "ELEMENT_SET_NO": 999, "REV_AT_EPOCH": 49368, "BSTAR": 0.0043037327, "MEAN_MOTION_DOT": 1.767e-05, "MEAN_MOTION_DDOT": 0}, "tle": {"line1": "1 37418U 99025EGL 25336.99235034  .00001767  00000+0  43037-2 0  9991", "line2": "2 37418  98.6134 232.4073 1077756 339.0553  16.9351 11.95097959493688"}}, "geometry": {"type": "Point", "coordinates": [-108.0456830417506, -64.65738420716906]}}, {"type": "Feature", "properties": {"norad_id": 37420, "name": "FENGYUN 1C DEB", "group": "fengyun-1c-debris", "lat": -75.42453923857286, "lon": 5.431989252766241, "alt_km": 852.8572296313978, "timestamp": "2025-12-04T07:39:36.423191+00:00", "meta": {"OBJECT_NAME": "FENGYUN 1C DEB", "OBJECT_ID": "1999-025EGN", "EPOCH": "2025-12-03T04:34:50.110464", "MEAN_MOTION": 13.99724677, "ECCENTRICITY": 0.00710355, "INCLINATION": 98.8595, "RA_OF_ASC_NODE": 327.4823, "ARG_OF_PERICENTER": 302.7718, "MEAN_ANOMALY": 56.6616, "EPHEMERIS_TYPE": 0, "CLASSIFICATION_TYPE": "U", "NORAD_CAT_ID": 37420, "ELEMENT_SET_NO": 999, "REV_AT_EPOCH": 59631, "BSTAR": 0.00072950763, "MEAN_MOTION_DOT": 1.048e-05, "MEAN_MOTION_DDOT": 0}, "tle": {"line1": "1 37420U 99025EGN 25337.19085776  .00001048  00000+0  72951-3 0  9993", "line2": "2 37420  98.8595 327.4823 0071035 302.7718  56.6616 13.99724677596314"}}, "geometry": {"type": "Point", "coordinates": [5.431989252766241, -75.42453923857286]}}, {"type": "Feature", "properties": {"norad_id": 37421, "name": "FENGYUN 1C DEB", "group": "fengyun-1c-debris", "lat": -73.52677887030354, "lon": 82.12250044075847, "alt_km": 1374.8500626892737, "timestamp": "2025-12-04T07:39:36.423200+00:00", "meta": {"OBJECT_NAME": "FENGYUN 1C DEB", "OBJECT_ID": "1999-025EGP", "EPOCH": "2025-11-30T14:38:47.817024", "MEAN_MOTION": 13.40509147, "ECCENTRICITY": 0.0408836, "INCLINATION": 98.8864, "RA_OF_ASC_NODE": 290.7982, "ARG_OF_PERICENTER": 115.931, "MEAN_ANOMALY": 248.4546, "EPHEMERIS_TYPE": 0, "CLASSIFICATION_TYPE": "U", "NORAD_CAT_ID": 37421, "ELEMENT_SET_NO": 999, "REV_AT_EPOCH": 60783, "BSTAR": 0.00054336, "MEAN_MOTION_DOT": 4.53e-06, "MEAN_MOTION_DDOT": 0}, "tle": {"line1": "1 37421U 99025EGP 25334.61027566  .00000453  00000+0  54336-3 0  9997", "line2": "2 37421  98.8864 290.7982 0408836 115.9310 248.4546 13.40509147607839"}}, "geometry": {"type": "Point", "coordinates": [82.12250044075847, -73.52677887030354]}}, {"type": "Feature", "properties": {"norad_id": 37423, "name": "FENGYUN 1C DEB", "group": "fengyun-1c-debris", "lat": 69.84834989747898, "lon": 3.8616477211841005, "alt_km": 873.7161581984019, "timestamp": "2025-12-04T07:39:36.423209+00:00", "meta": {"OBJECT_NAME": "FENGYUN 1C DEB", "OBJECT_ID": "1999-025EGR", "EPOCH": "2025-12-02T09:15:11.081088", "MEAN_MOTION": 14.07508063, "ECCENTRICITY": 0.00491371, "INCLINATION": 98.7874, "RA_OF_ASC_NODE": 26.9108, "ARG_OF_PERICENTER": 188.2995, "MEAN_ANOMALY": 171.7367, "EPHEMERIS_TYPE": 0, "CLASSIFICATION_TYPE": "U", "NORAD_CAT_ID": 37423, "ELEMENT_SET_NO": 999, "REV_AT_EPOCH": 63464, "BSTAR": 0.00087659335, "MEAN_MOTION_DOT": 1.451e-05, "MEAN_MOTION_DDOT": 0}, "tle": {"line1": "1 37423U 99025EGR 25336.38554492  .00001451  00000+0  87659-3 0  9991", "line2": "2 37423  98.7874  26.9108 0049137 188.2995 171.7367 14.07508063634645"}}, "geometry": {"type": "Point", "coordinates": [3.8616477211841005, 69.84834989747898]}}, {"type": "Feature", "properties": {"norad_id": 37424, "name": "FENGYUN 1C DEB", "group": "fengyun-1c-debris", "lat": -3.2328078459817813, "lon": 108.80026630306924, "alt_km": 732.5886209291339, "timestamp": "2025-12-04T07:39:36.423218+00:00", "meta": {"OBJECT_NAME": "FENGYUN 1C DEB", "OBJECT_ID": "1999-025EGS", "EPOCH": "2025-11-26T15:03:16.540128", "MEAN_MOTION": 14.17748147, "ECCENTRICITY": 0.02143557, "INCLINATION": 97.1976, "RA_OF_ASC_NODE": 102.1461, "ARG_OF_PERICENTER": 331.0381, "MEAN_ANOMALY": 27.9039, "EPHEMERIS_TYPE": 0, "CLASSIFICATION_TYPE": "U", "NORAD_CAT_ID": 37424, "ELEMENT_SET_NO": 999, "REV_AT_EPOCH": 68345, "BSTAR": 0.00085242664, "MEAN_MOTION_DOT": 2.145e-05, "MEAN_MOTION_DDOT": 0}, "tle": {"line1": "1 37424U 99025EGS 25330.62727477  .00002145  00000+0  85243-3 0  9996", "line2": "2 37424  97.1976 102.1461 0214355 331.0381  27.9039 14.17748147683455"}}, "geometry": {"type": "Point", "coordinates": [108.80026630306924, -3.2328078459817813]}}, {"type": "Feature", "properties": {"norad_id": 37427, "name": "FENGYUN 1C DEB", "group": "fengyun-1c-debris", "lat": 49.565807256278774, "lon": -50.43576375446516, "alt_km": 694.4886886897284, "timestamp": "2025-12-04T07:39:36.423227+00:00", "meta": {"OBJECT_NAME": "FENGYUN 1C DEB", "OBJECT_ID": "1999-025EGV", "EPOCH": "2025-11-25T03:26:10.747680", "MEAN_MOTION": 14.97768919, "ECCENTRICITY": 0.01887185, "INCLINATION": 98.6232, "RA_OF_ASC_NODE": 109.1733, "ARG_OF_PERICENTER": 355.7363, "MEAN_ANOMALY": 4.2239, "EPHEMERIS_TYPE": 0, "CLASSIFICATION_TYPE": "U", "NORAD_CAT_ID": 37427, "ELEMENT_SET_NO": 999, "REV_AT_EPOCH": 60059, "BSTAR": 0.00046451943, "MEAN_MOTION_DOT": 7.8e-05, "MEAN_MOTION_DDOT": 0}, "tle": {"line1": "1 37427U 99025EGV 25329.14317995  .00007800  00000+0  46452-3 0  9996", "line2": "2 37427  98.6232 109.1733 0188718 355.7363   4.2239 14.97768919600595"}}, "geometry": {"type": "Point", "coordinates": [-50.43576375446516, 49.565807256278774]}}]}